[{"OBJECT_NAME":"STARLINK-2686","OBJECT_ID":"2021-040AN","EPOCH":"2026-03-10T00:00:02.999808","MEAN_MOTION":15.27531462,"ECCENTRICITY":8.913e-5,"INCLINATION":53.1481,"RA_OF_ASC_NODE":189.2989,"ARG_OF_PERICENTER":67.5611,"MEAN_ANOMALY":257.1176,"EPHEMERIS_TYPE":0,"CLASSIFICATION_TYPE":"U","NORAD_CAT_ID":48464,"ELEMENT_SET_NO":999,"REV_AT_EPOCH":574,"BSTAR":0.050147817,"MEAN_MOTION_DOT":0.01497871,"MEAN_MOTION_DDOT":0},{"OBJECT_NAME":"OBJECT C","OBJECT_ID":"2024-153C","EPOCH":"2026-03-09T22:45:52.192800","MEAN_MOTION":15.36401606,"ECCENTRICITY":0.00103806,"INCLINATION":97.6622,"RA_OF_ASC_NODE":206.7519,"ARG_OF_PERICENTER":145.6814,"MEAN_ANOMALY":214.5102,"EPHEMERIS_TYPE":0,"CLASSIFICATION_TYPE":"U","NORAD_CAT_ID":60747,"ELEMENT_SET_NO":999,"REV_AT_EPOCH":8488,"BSTAR":0.0009101215,"MEAN_MOTION_DOT":0.00032382,"MEAN_MOTION_DDOT":0}]
